#dP2019 10 19  0  0  0.00000000      96 __u+U ITR00 FIT  IAC
## 2075 518400.00000000   900.00000000 58775 0.0000000000000
+  105   C06C07C08C09C10C11C12C13C14C16C19C20C21C22C23C24C25
+        C26C27C28C29C30C32C33C34C35C36C37E01E02E03E04E05E07
+        E08E09E11E12E13E14E15E18E19E21E24E25E26E27E30E31E33
+        E36G01G02G03G05G06G07G08G09G10G11G12G13G14G15G16G17
+        G18G19G20G21G22G23G24G25G26G27G28G29G30G31G32R01R02
+        R03R05R07R08R09R11R12R13R14R15R16R17R18R19R20R21R22
+        R23R24R26  0  0  0  0  0  0  0  0  0  0  0  0  0  0
++         9  9  8  8  8  7  8  9  8  9  8  8  8  8  8  8  8
++         8  8  8  8  8  8  8  8  8  9  9  5  5  5  5  5  5
++         5  5  5  5  5  5  5  5  5  5  5  5  5  5  5  5  5
++         5  3  4  3  4  4  4  4  3  4  4  3  4  3  4  3  3
++         4  4  4  4  3  3  4  3  3  3  3  3  4  3  4  6  5
++         5  6  5  5  5  5  5  6  6  6  6  5  6  6  6  5  5
++         5  6  7  0  0  0  0  0  0  0  0  0  0  0  0  0  0
%c M  cc GPS ccc cccc cccc cccc cccc ccccc ccccc ccccc ccccc
%c cc cc ccc ccc cccc cccc cccc cccc ccccc ccccc ccccc ccccc
%f  0.0000000  0.000000000  0.00000000000  0.000000000000000
%f  0.0000000  0.000000000  0.00000000000  0.000000000000000
%i    0    0    0    0      0      0      0      0         0
%i    0    0    0    0      0      0      0      0         0
/* INFORMATION & ANALYSIS CENTER (IAC)      ULTRA-RAPID DATA
/* S/V CLOCKS ARE ALIGNED TO GNSS TIME                      
/* G:C1WC2W R:C1PC2P E:C1XC5X C:C2IC6I J:C1CC2S             
/* PCV:IGS14_2070 OL/AL:FES2004  NONE     YN ORB:CoN CLK:CoN
*  2019 10 19 13  0  0.00000000
PC06 -23917.693819  31440.977123  14507.435610    355.023463
PC07 -10227.869886  35085.030718  21621.728647   -205.083654
PC08 -14131.219899  17500.134862 -35620.551123    -18.450505
PC09 -10162.740683  30711.122741  27087.055736     51.790840
PC10    704.520562  41236.393763   9952.833457   -283.946586
PC11  26990.561720  -6361.755534  -2720.004609     47.875916
PC12  11207.593696  11991.963771 -22484.727427    305.411129
PC13   2100.088463  24644.716809 -34046.038177   -834.519326
PC14  16680.220458  -7258.294737  21169.010690     93.044840
PC16 -21017.401153  32019.179301  17450.442046   -895.294322
PC19 -15057.724192  16996.044445 -16215.032564    222.523898
PC20 -15691.786163  -2887.319053 -22886.225361   -189.583639
PC21   6961.681602  21692.431727  16138.829938    244.620077
PC22  -5728.238791  27328.602422     -0.210382   -244.693009
PC23   -689.337465 -19691.666312 -19747.201760   -901.721879
PC24  23211.885779  10760.317333 -11114.564864   -881.360239
PC25  15616.066709  -7002.591475 -22037.370194   -385.192059
PC26  17694.541861  20820.055548   5598.730770    428.766299
PC27 -11227.931870 -12650.080575  22180.735747    209.678990
PC28   9515.294969 -17192.490978  19812.929977    200.937458
PC29 -24185.902919  12620.452767  -5892.715472    134.215982
PC30 -25305.677003     59.485212  11750.079796    210.430337
PC32  -7126.085752 -21625.503457 -16122.441459   -890.934237
PC33  15027.687640 -16965.071515  16268.706812   -483.774067
PC34  25452.363317   -189.416871 -11461.299262   -166.054880
PC35  -9008.721456  17546.059923 -19728.431394 999999.999999
PC36 -15902.687422   6495.885494  22022.794795   -943.421050
PC37 -16900.134922 -21360.248443  -6068.114037   -629.730865
PE01   9167.037887  27792.193632   4467.761272   -713.811471
PE02  -9231.957763 -27783.933714  -4374.670981     86.203503
PE03    510.248243 -23095.995340 -18501.358633   -223.527699
PE04  15234.209300   8088.422150  24055.327400   -388.462806
PE05  16134.445504 -24730.128129  -2036.119124   -438.725966
PE07 -22228.975703  11898.706323 -15515.579057   -285.804860
PE08 -15290.847190  -7718.089447 -24143.976320   6275.514680
PE09  22056.879658 -12144.050045  15548.782394   6280.312756
PE11  28328.065546  -2780.934352   8127.436128   5546.548006
PE12  25637.344570   9771.252324 -11116.315878   6142.318079
PE13 -28365.303432   2784.973354  -7997.520532    394.354301
PE14  -2236.502964  23041.845620 -22196.160672   -762.413871
PE15 -25866.078830  -9452.827308  10868.090228    891.003782
PE18   8399.133691 -18232.688722  13540.064947   -856.930241
PE19  -2398.384185  23961.264700  17211.907311     -3.342190
PE21  -5407.929521  20839.850059  20322.762120   -561.127643
PE24  16913.799076  -1678.756257 -24233.987751   5812.010158
PE25   5462.415214 -20769.867554 -20354.874312   1642.840549
PE26 -14184.090800  13523.236831 -22185.505867   3976.331036
PE27 -16910.692420   1618.595524  24251.440323    363.712859
PE30 -18374.568601 -18566.059184  13928.793238   4454.657976
PE31  18440.007217  18505.630726 -13909.038652   -469.763403
PE33   8194.421172  16168.916808 -23394.315964   -471.254628
PE36  14222.615545 -13422.316038  22221.886643    647.741109
PG01  21447.170358  14568.566553  -6692.558973   -167.970497
PG02  -2665.871067 -16784.410445  21060.233243   -329.109449
PG03  13117.973224  16409.601696  16245.675829    -24.440521
PG05  -3133.582075 -26254.749196    637.325780     -2.489812
PG06  12719.626438  -9985.639876  21118.174484    -95.635420
PG07  24920.091678   4972.872456  -8243.011663   -130.406773
PG08   6644.502513  13638.056751 -21749.207879    -10.434581
PG09  21981.899480  -3779.393733  14375.090060    -60.846931
PG10 -12073.794043  13358.654283 -19388.085060   -100.335115
PG11  20180.556183  10233.272891 -14182.644996   -473.568478
PG12  -9547.437927 -21043.228209  13022.795625    192.457918
PG13   3731.319634 -17552.280010 -19675.949556    -37.957380
PG14 -15641.008118  18567.692067  10879.966557    -55.284486
PG15  -9377.915142 -13091.404943 -21390.003819   -278.798119
PG16  -1031.180919  26179.975602   2328.151602    -84.778606
PG17  21533.201398 -15408.211689   1791.389396    147.021506
PG18  15347.774713  16709.872636 -14392.700888     94.147020
PG19  18772.689529 -16997.428258   7750.725633   -251.609790
PG20 -15642.488285   2905.834237 -21374.770943    527.243357
PG21 -23719.946551   -414.604678 -10948.530260    -99.894088
PG22  11714.898373  21790.710355  10010.908574   -765.187844
PG23  16404.870173   6093.180622  20424.796844   -160.558591
PG24 -20555.733378 -14708.123296  -8884.328909     -3.684712
PG25 -15000.317013  -6999.578177  20615.017564    -15.723388
PG26  -5663.816668  22808.990685  12169.972416     65.001776
PG27  -5905.453534  18987.085013 -17565.807177    -92.512872
PG28  12281.869336 -13626.322795 -18643.738053    758.478593
PG29 -21223.063895    966.611929  15924.789986     67.157963
PG30  19883.253098  -4229.597805 -17162.940626    -64.967419
PG31 -11332.647646  11167.076034  21315.652612      2.622136
PG32 -20756.826427  16422.365860   1147.338653     96.604299
PR01 -11558.512553   -684.611435 -22734.546735     51.404359
PR02 -13503.410539  18597.873755 -10973.369053    393.605755
PR03  -6595.831941  23759.286173   6470.021924      3.394068
PR05  12193.751894  -1964.741420  22325.255348     37.793332
PR07   6392.400108 -23728.024109  -6888.695361    -28.235243
PR08  -3873.773505 -15353.689596 -19956.461839     14.973143
PR09   6629.015634  -9562.188953 -22675.268924     96.551055
PR11 -15855.658525 -19919.870312   1094.853603    -83.172256
PR12 -17060.531419  -9557.292459  16424.254511     71.606288
PR13  -8229.507008   7189.998331  23039.238123    -29.845066
PR14   5043.220601  19267.861900  15966.131984     44.154231
PR15  15460.593631  20289.391994   -135.300244    104.432769
PR16  17201.506986   8858.260696 -16570.577386      2.155579
PR17  -6099.914390  10978.024166 -22201.820533    269.540350
PR18  12409.588900   7966.373527 -20812.669875     11.471623
PR19  24029.062643   1404.484837  -8424.714919    -59.636083
PR20  21960.778559  -7052.007890  10938.157700   -393.775588
PR21   5198.496898 -10887.697584  22468.828815    -79.734308
PR22 -15003.176755  -7003.257453  19364.503269   -180.763334
PR23 -25319.062088   1832.751686   2543.781863    261.256520
PR24 -20493.833755   8193.786525 -12808.981159   -185.863257
PR26  23501.881732  -6254.984158   7648.363898      1.971058
EOF
